{"type": "FeatureCollection", "features": [{"type": "Feature", "properties": {"norad_id": 24946, "name": "IRIDIUM 33", "group": "iridium-33-debris", "lat": -45.6707495434621, "lon": 58.96787796223492, "alt_km": 787.3291641319202, "timestamp": "2025-12-25T22:42:17.397978+00:00", "meta": {"OBJECT_NAME": "IRIDIUM 33", "OBJECT_ID": "1997-051C", "EPOCH": "2025-12-25T06:11:00.134016", "MEAN_MOTION": 14.35045823, "ECCENTRICITY": 0.0008508, "INCLINATION": 86.3857, "RA_OF_ASC_NODE": 62.9667, "ARG_OF_PERICENTER": 159.9967, "MEAN_ANOMALY": 200.1564, "EPHEMERIS_TYPE": 0, "CLASSIFICATION_TYPE": "U", "NORAD_CAT_ID": 24946, "ELEMENT_SET_NO": 999, "REV_AT_EPOCH": 48014, "BSTAR": 0.00011524, "MEAN_MOTION_DOT": 3.48e-06, "MEAN_MOTION_DDOT": 0}, "tle": {"line1": "1 24946U 97051C   25359.25764044  .00000348  00000+0  11524-3 0  9993", "line2": "2 24946  86.3857  62.9667 0008508 159.9967 200.1564 14.35045823480147"}}, "geometry": {"type": "Point", "coordinates": [58.96787796223492, -45.6707495434621]}}, {"type": "Feature", "properties": {"norad_id": 33773, "name": "IRIDIUM 33 DEB", "group": "iridium-33-debris", "lat": -58.0142071343599, "lon": 49.20659982474635, "alt_km": 764.0751821074819, "timestamp": "2025-12-25T22:42:17.398006+00:00", "meta": {"OBJECT_NAME": "IRIDIUM 33 DEB", "OBJECT_ID": "1997-051L", "EPOCH": "2025-12-25T14:39:17.561952", "MEAN_MOTION": 14.43283203, "ECCENTRICITY": 0.0013294, "INCLINATION": 86.3997, "RA_OF_ASC_NODE": 55.1348, "ARG_OF_PERICENTER": 109.508, "MEAN_ANOMALY": 250.7558, "EPHEMERIS_TYPE": 0, "CLASSIFICATION_TYPE": "U", "NORAD_CAT_ID": 33773, "ELEMENT_SET_NO": 999, "REV_AT_EPOCH": 88533, "BSTAR": 0.0002966, "MEAN_MOTION_DOT": 1.019e-05, "MEAN_MOTION_DDOT": 0}, "tle": {"line1": "1 33773U 97051L   25359.61061993  .00001019  00000+0  29660-3 0  9990", "line2": "2 33773  86.3997  55.1348 0013294 109.5080 250.7558 14.43283203885334"}}, "geometry": {"type": "Point", "coordinates": [49.20659982474635, -58.0142071343599]}}, {"type": "Feature", "properties": {"norad_id": 33775, "name": "IRIDIUM 33 DEB", "group": "iridium-33-debris", "lat": -59.357254889093085, "lon": 37.75007068420252, "alt_km": 771.6809037613257, "timestamp": "2025-12-25T22:42:17.398021+00:00", "meta": {"OBJECT_NAME": "IRIDIUM 33 DEB", "OBJECT_ID": "1997-051N", "EPOCH": "2025-12-25T15:15:04.201056", "MEAN_MOTION": 14.41495203, "ECCENTRICITY": 0.0015345, "INCLINATION": 86.3624, "RA_OF_ASC_NODE": 44.0472, "ARG_OF_PERICENTER": 116.415, "MEAN_ANOMALY": 13.4748, "EPHEMERIS_TYPE": 0, "CLASSIFICATION_TYPE": "U", "NORAD_CAT_ID": 33775, "ELEMENT_SET_NO": 999, "REV_AT_EPOCH": 88326, "BSTAR": 0.00032187, "MEAN_MOTION_DOT": 1.066e-05, "MEAN_MOTION_DDOT": 0}, "tle": {"line1": "1 33775U 97051N   25359.63546529  .00001066  00000+0  32187-3 0  9997", "line2": "2 33775  86.3624  44.0472 0015345 116.4150  13.4748 14.41495203883260"}}, "geometry": {"type": "Point", "coordinates": [37.75007068420252, -59.357254889093085]}}, {"type": "Feature", "properties": {"norad_id": 33776, "name": "IRIDIUM 33 DEB", "group": "iridium-33-debris", "lat": 16.303003012447085, "lon": 76.283967013217, "alt_km": 772.5333769028748, "timestamp": "2025-12-25T22:42:17.398033+00:00", "meta": {"OBJECT_NAME": "IRIDIUM 33 DEB", "OBJECT_ID": "1997-051P", "EPOCH": "2025-12-25T18:12:32.556096", "MEAN_MOTION": 14.38256901, "ECCENTRICITY": 0.0015777, "INCLINATION": 86.4031, "RA_OF_ASC_NODE": 75.3085, "ARG_OF_PERICENTER": 149.2328, "MEAN_ANOMALY": 338.0492, "EPHEMERIS_TYPE": 0, "CLASSIFICATION_TYPE": "U", "NORAD_CAT_ID": 33776, "ELEMENT_SET_NO": 999, "REV_AT_EPOCH": 88269, "BSTAR": 0.00026708, "MEAN_MOTION_DOT": 8.32e-06, "MEAN_MOTION_DDOT": 0}, "tle": {"line1": "1 33776U 97051P   25359.75871014  .00000832  00000+0  26708-3 0  9993", "line2": "2 33776  86.4031  75.3085 0015777 149.2328 338.0492 14.38256901882695"}}, "geometry": {"type": "Point", "coordinates": [76.283967013217, 16.303003012447085]}}, {"type": "Feature", "properties": {"norad_id": 33777, "name": "IRIDIUM 33 DEB", "group": "iridium-33-debris", "lat": -86.24998379036246, "lon": -45.68525656747125, "alt_km": 713.5127284906248, "timestamp": "2025-12-25T22:42:17.398045+00:00", "meta": {"OBJECT_NAME": "IRIDIUM 33 DEB", "OBJECT_ID": "1997-051Q", "EPOCH": "2025-12-25T11:33:55.339200", "MEAN_MOTION": 14.55699365, "ECCENTRICITY": 0.0006373, "INCLINATION": 86.3774, "RA_OF_ASC_NODE": 29.6591, "ARG_OF_PERICENTER": 195.6896, "MEAN_ANOMALY": 164.4115, "EPHEMERIS_TYPE": 0, "CLASSIFICATION_TYPE": "U", "NORAD_CAT_ID": 33777, "ELEMENT_SET_NO": 999, "REV_AT_EPOCH": 88719, "BSTAR": 0.00081532, "MEAN_MOTION_DOT": 3.584e-05, "MEAN_MOTION_DDOT": 0}, "tle": {"line1": "1 33777U 97051Q   25359.48189050  .00003584  00000+0  81532-3 0  9999", "line2": "2 33777  86.3774  29.6591 0006373 195.6896 164.4115 14.55699365887197"}}, "geometry": {"type": "Point", "coordinates": [-45.68525656747125, -86.24998379036246]}}, {"type": "Feature", "properties": {"norad_id": 33850, "name": "IRIDIUM 33 DEB", "group": "iridium-33-debris", "lat": -46.29875705747161, "lon": 20.660827325316653, "alt_km": 767.447820921635, "timestamp": "2025-12-25T22:42:17.398056+00:00", "meta": {"OBJECT_NAME": "IRIDIUM 33 DEB", "OBJECT_ID": "1997-051T", "EPOCH": "2025-12-25T13:32:16.366848", "MEAN_MOTION": 14.42178357, "ECCENTRICITY": 0.0013303, "INCLINATION": 86.3408, "RA_OF_ASC_NODE": 24.6646, "ARG_OF_PERICENTER": 122.9915, "MEAN_ANOMALY": 8.9113, "EPHEMERIS_TYPE": 0, "CLASSIFICATION_TYPE": "U", "NORAD_CAT_ID": 33850, "ELEMENT_SET_NO": 999, "REV_AT_EPOCH": 88337, "BSTAR": 0.00042851, "MEAN_MOTION_DOT": 1.431e-05, "MEAN_MOTION_DDOT": 0}, "tle": {"line1": "1 33850U 97051T   25359.56407832  .00001431  00000+0  42851-3 0  9991", "line2": "2 33850  86.3408  24.6646 0013303 122.9915   8.9113 14.42178357883370"}}, "geometry": {"type": "Point", "coordinates": [20.660827325316653, -46.29875705747161]}}, {"type": "Feature", "properties": {"norad_id": 33853, "name": "IRIDIUM 33 DEB", "group": "iridium-33-debris", "lat": 85.99676831052402, "lon": 75.19471235912243, "alt_km": 925.6049515455506, "timestamp": "2025-12-25T22:42:17.398068+00:00", "meta": {"OBJECT_NAME": "IRIDIUM 33 DEB", "OBJECT_ID": "1997-051W", "EPOCH": "2025-12-24T22:19:16.041792", "MEAN_MOTION": 13.99120379, "ECCENTRICITY": 0.0207734, "INCLINATION": 86.0001, "RA_OF_ASC_NODE": 344.4648, "ARG_OF_PERICENTER": 198.227, "MEAN_ANOMALY": 179.9108, "EPHEMERIS_TYPE": 0, "CLASSIFICATION_TYPE": "U", "NORAD_CAT_ID": 33853, "ELEMENT_SET_NO": 999, "REV_AT_EPOCH": 85516, "BSTAR": 0.0011909, "MEAN_MOTION_DOT": 2.092e-05, "MEAN_MOTION_DDOT": 0}, "tle": {"line1": "1 33853U 97051W   25358.93004678  .00002092  00000+0  11909-2 0  9998", "line2": "2 33853  86.0001 344.4648 0207734 198.2270 179.9108 13.99120379855168"}}, "geometry": {"type": "Point", "coordinates": [75.19471235912243, 85.99676831052402]}}, {"type": "Feature", "properties": {"norad_id": 33860, "name": "IRIDIUM 33 DEB", "group": "iridium-33-debris", "lat": 7.726712740729764, "lon": 21.882841906872088, "alt_km": 668.9991658631789, "timestamp": "2025-12-25T22:42:17.398079+00:00", "meta": {"OBJECT_NAME": "IRIDIUM 33 DEB", "OBJECT_ID": "1997-051AD", "EPOCH": "2025-12-25T01:40:13.916928", "MEAN_MOTION": 14.67512307, "ECCENTRICITY": 0.00060597, "INCLINATION": 86.3823, "RA_OF_ASC_NODE": 21.779, "ARG_OF_PERICENTER": 309.0617, "MEAN_ANOMALY": 111.5218, "EPHEMERIS_TYPE": 0, "CLASSIFICATION_TYPE": "U", "NORAD_CAT_ID": 33860, "ELEMENT_SET_NO": 999, "REV_AT_EPOCH": 88903, "BSTAR": 0.0011962769, "MEAN_MOTION_DOT": 6.804e-05, "MEAN_MOTION_DDOT": 0}, "tle": {"line1": "1 33860U 97051AD  25359.06960552  .00006804  00000+0  11963-2 0  9998", "line2": "2 33860  86.3823  21.7790 0006059 309.0617 111.5218 14.67512307889037"}}, "geometry": {"type": "Point", "coordinates": [21.882841906872088, 7.726712740729764]}}, {"type": "Feature", "properties": {"norad_id": 33862, "name": "IRIDIUM 33 DEB", "group": "iridium-33-debris", "lat": 34.98467733142118, "lon": -150.81388547851233, "alt_km": 678.0981571664252, "timestamp": "2025-12-25T22:42:17.398089+00:00", "meta": {"OBJECT_NAME": "IRIDIUM 33 DEB", "OBJECT_ID": "1997-051AF", "EPOCH": "2025-12-25T12:47:12.217920", "MEAN_MOTION": 14.69679018, "ECCENTRICITY": 0.005205, "INCLINATION": 86.4084, "RA_OF_ASC_NODE": 31.8876, "ARG_OF_PERICENTER": 26.1582, "MEAN_ANOMALY": 93.1251, "EPHEMERIS_TYPE": 0, "CLASSIFICATION_TYPE": "U", "NORAD_CAT_ID": 33862, "ELEMENT_SET_NO": 999, "REV_AT_EPOCH": 89011, "BSTAR": 0.0015453, "MEAN_MOTION_DOT": 9.418e-05, "MEAN_MOTION_DDOT": 0}, "tle": {"line1": "1 33862U 97051AF  25359.53278030  .00009418  00000+0  15453-2 0  9997", "line2": "2 33862  86.4084  31.8876 0052050  26.1582  93.1251 14.69679018890114"}}, "geometry": {"type": "Point", "coordinates": [-150.81388547851233, 34.98467733142118]}}, {"type": "Feature", "properties": {"norad_id": 33866, "name": "IRIDIUM 33 DEB", "group": "iridium-33-debris", "lat": -85.84484535061381, "lon": -29.57730640257235, "alt_km": 885.351508215892, "timestamp": "2025-12-25T22:42:17.398100+00:00", "meta": {"OBJECT_NAME": "IRIDIUM 33 DEB", "OBJECT_ID": "1997-051AK", "EPOCH": "2025-12-25T18:40:33.881088", "MEAN_MOTION": 14.25314214, "ECCENTRICITY": 0.0115311, "INCLINATION": 86.2996, "RA_OF_ASC_NODE": 87.5194, "ARG_OF_PERICENTER": 120.0722, "MEAN_ANOMALY": 6.5458, "EPHEMERIS_TYPE": 0, "CLASSIFICATION_TYPE": "U", "NORAD_CAT_ID": 33866, "ELEMENT_SET_NO": 999, "REV_AT_EPOCH": 86996, "BSTAR": 0.00059555, "MEAN_MOTION_DOT": 1.523e-05, "MEAN_MOTION_DDOT": 0}, "tle": {"line1": "1 33866U 97051AK  25359.77816992  .00001523  00000+0  59555-3 0  9993", "line2": "2 33866  86.2996  87.5194 0115311 120.0722   6.5458 14.25314214869961"}}, "geometry": {"type": "Point", "coordinates": [-29.57730640257235, -85.84484535061381]}}]}